[
    {
        "Altitude(m)": 610405.3479924406,
        "Argument of Periapsis(deg)": 0.0,
        "Eccentricity": 0.0,
        "Inclination(deg)": 60.0,
        "Latitude(deg)": 52.111340436056956,
        "Longitude(deg)": 77.47738290614245,
        "Mean Anomaly(deg)": 114.5455,
        "RAAN(deg)": 45.0,
        "Satellite Name": "Test1 205",
        "Satellite Number": 205,
        "Semi-Major Axis(m)": 6980739.136638005,
        "Time(s)": 0
    },
    {
        "Altitude(m)": 610321.9211803923,
        "Argument of Periapsis(deg)": 0.00010418945913296404,
        "Eccentricity": 0.0,
        "Inclination(deg)": 60.0,
        "Latitude(deg)": 51.74605577875614,
        "Longitude(deg)": 78.24627835966352,
        "Mean Anomaly(deg)": 115.16560614546188,
        "RAAN(deg)": 44.99957995086026,
        "Satellite Name": "Test1 205",
        "Satellite Number": 205,
        "Semi-Major Axis(m)": 6980739.136638005,
        "Time(s)": 10
    },
    {
        "Altitude(m)": 610237.1302072257,
        "Argument of Periapsis(deg)": 0.0002083789182659281,
        "Eccentricity": 0.0,
        "Inclination(deg)": 60.0,
        "Latitude(deg)": 51.37525202765455,
        "Longitude(deg)": 79.00212122338267,
        "Mean Anomaly(deg)": 115.78571229092368,
        "RAAN(deg)": 44.99915990172052,
        "Satellite Name": "Test1 205",
        "Satellite Number": 205,
        "Semi-Major Axis(m)": 6980739.136638005,
        "Time(s)": 20
    },
    {
        "Altitude(m)": 610151.0252536399,
        "Argument of Periapsis(deg)": 0.00031256837739889213,
        "Eccentricity": 0.0,
        "Inclination(deg)": 60.0,
        "Latitude(deg)": 50.99908776804021,
        "Longitude(deg)": 79.74510462608512,
        "Mean Anomaly(deg)": 116.40581843638546,
        "RAAN(deg)": 44.99873985258077,
        "Satellite Name": "Test1 205",
        "Satellite Number": 205,
        "Semi-Major Axis(m)": 6980739.136638005,
        "Time(s)": 30
    },
    {
        "Altitude(m)": 610063.6573628479,
        "Argument of Periapsis(deg)": 0.0004167578365318562,
        "Eccentricity": 0.0,
        "Inclination(deg)": 60.0,
        "Latitude(deg)": 50.61771783125281,
        "Longitude(deg)": 80.4754293984682,
        "Mean Anomaly(deg)": 117.02592458184733,
        "RAAN(deg)": 44.99831980344103,
        "Satellite Name": "Test1 205",
        "Satellite Number": 205,
        "Semi-Major Axis(m)": 6980739.136638005,
        "Time(s)": 40
    },
    {
        "Altitude(m)": 609975.0784159502,
        "Argument of Periapsis(deg)": 0.0005209472956648203,
        "Eccentricity": 0.0,
        "Inclination(deg)": 60.0,
        "Latitude(deg)": 50.231293269550115,
        "Longitude(deg)": 81.19330201448288,
        "Mean Anomaly(deg)": 117.64603072730915,
        "RAAN(deg)": 44.99789975430129,
        "Satellite Name": "Test1 205",
        "Satellite Number": 205,
        "Semi-Major Axis(m)": 6980739.136638005,
        "Time(s)": 50
    },
    {
        "Altitude(m)": 609885.341106875,
        "Argument of Periapsis(deg)": 0.0006251367547977843,
        "Eccentricity": 0.0,
        "Inclination(deg)": 60.0,
        "Latitude(deg)": 49.83996134563641,
        "Longitude(deg)": 81.89893411633523,
        "Mean Anomaly(deg)": 118.26613687277099,
        "RAAN(deg)": 44.997479705161545,
        "Satellite Name": "Test1 205",
        "Satellite Number": 205,
        "Semi-Major Axis(m)": 6980739.136638005,
        "Time(s)": 60
    },
    {
        "Altitude(m)": 609794.4989169041,
        "Argument of Periapsis(deg)": 0.0007293262139307483,
        "Eccentricity": 0.0,
        "Inclination(deg)": 60.0,
        "Latitude(deg)": 49.443865535422596,
        "Longitude(deg)": 82.59254210874589,
        "Mean Anomaly(deg)": 118.8862430182328,
        "RAAN(deg)": 44.9970596560218,
        "Satellite Name": "Test1 205",
        "Satellite Number": 205,
        "Semi-Major Axis(m)": 6980739.136638005,
        "Time(s)": 70
    },
    {
        "Altitude(m)": 609702.6060887545,
        "Argument of Periapsis(deg)": 0.0008335156730637124,
        "Eccentricity": 0.0,
        "Inclination(deg)": 60.0,
        "Latitude(deg)": 49.043145542659296,
        "Longitude(deg)": 83.27434530765532,
        "Mean Anomaly(deg)": 119.50634916369464,
        "RAAN(deg)": 44.996639606882056,
        "Satellite Name": "Test1 205",
        "Satellite Number": 205,
        "Semi-Major Axis(m)": 6980739.136638005,
        "Time(s)": 80
    },
    {
        "Altitude(m)": 609609.717600312,
        "Argument of Periapsis(deg)": 0.0009377051321966765,
        "Eccentricity": 0.0,
        "Inclination(deg)": 60.0,
        "Latitude(deg)": 48.63793732416406,
        "Longitude(deg)": 83.94456566685885,
        "Mean Anomaly(deg)": 120.12645530915646,
        "RAAN(deg)": 44.996219557742315,
        "Satellite Name": "Test1 205",
        "Satellite Number": 205,
        "Semi-Major Axis(m)": 6980739.136638005,
        "Time(s)": 90
    },
    {
        "Altitude(m)": 609515.889137942,
        "Argument of Periapsis(deg)": 0.0010418945913296407,
        "Eccentricity": 0.0,
        "Inclination(deg)": 60.0,
        "Latitude(deg)": 48.228373124438086,
        "Longitude(deg)": 84.60342756716977,
        "Mean Anomaly(deg)": 120.74656145461832,
        "RAAN(deg)": 44.99579950860257,
        "Satellite Name": "Test1 205",
        "Satellite Number": 205,
        "Semi-Major Axis(m)": 6980739.136638005,
        "Time(s)": 100
    },
    {
        "Altitude(m)": 609421.1770694259,
        "Argument of Periapsis(deg)": 0.0011460840504626045,
        "Eccentricity": 0.0,
        "Inclination(deg)": 60.0,
        "Latitude(deg)": 47.81458151854978,
        "Longitude(deg)": 85.25115615251354,
        "Mean Anomaly(deg)": 121.36666760008015,
        "RAAN(deg)": 44.99537945946283,
        "Satellite Name": "Test1 205",
        "Satellite Number": 205,
        "Semi-Major Axis(m)": 6980739.136638005,
        "Time(s)": 110
    },
    {
        "Altitude(m)": 609325.6384165463,
        "Argument of Periapsis(deg)": 0.0012502735095955685,
        "Eccentricity": 0.0,
        "Inclination(deg)": 60.0,
        "Latitude(deg)": 47.396687462239996,
        "Longitude(deg)": 85.88797723585449,
        "Mean Anomaly(deg)": 121.98677374554197,
        "RAAN(deg)": 44.99495941032309,
        "Satellite Name": "Test1 205",
        "Satellite Number": 205,
        "Semi-Major Axis(m)": 6980739.136638005,
        "Time(s)": 120
    },
    {
        "Altitude(m)": 609229.3308273101,
        "Argument of Periapsis(deg)": 0.0013544629687285324,
        "Eccentricity": 0.0,
        "Inclination(deg)": 60.0,
        "Latitude(deg)": 46.97481234828186,
        "Longitude(deg)": 86.51411725913671,
        "Mean Anomaly(deg)": 122.6068798910038,
        "RAAN(deg)": 44.99453936118335,
        "Satellite Name": "Test1 205",
        "Satellite Number": 205,
        "Semi-Major Axis(m)": 6980739.136638005,
        "Time(s)": 130
    },
    {
        "Altitude(m)": 609132.3125478405,
        "Argument of Periapsis(deg)": 0.0014586524278614966,
        "Eccentricity": 0.0,
        "Inclination(deg)": 60.0,
        "Latitude(deg)": 46.54907406820196,
        "Longitude(deg)": 87.12980179138465,
        "Mean Anomaly(deg)": 123.22698603646562,
        "RAAN(deg)": 44.99411931204361,
        "Satellite Name": "Test1 205",
        "Satellite Number": 205,
        "Semi-Major Axis(m)": 6980739.136638005,
        "Time(s)": 140
    },
    {
        "Altitude(m)": 609034.6423939286,
        "Argument of Periapsis(deg)": 0.0015628418869944607,
        "Eccentricity": 0.0,
        "Inclination(deg)": 60.0,
        "Latitude(deg)": 46.11958707854524,
        "Longitude(deg)": 87.73525558772636,
        "Mean Anomaly(deg)": 123.84709218192745,
        "RAAN(deg)": 44.99369926290386,
        "Satellite Name": "Test1 205",
        "Satellite Number": 205,
        "Semi-Major Axis(m)": 6980739.136638005,
        "Time(s)": 150
    },
    {
        "Altitude(m)": 608936.3797222647,
        "Argument of Periapsis(deg)": 0.0016670313461274247,
        "Eccentricity": 0.0,
        "Inclination(deg)": 60.0,
        "Latitude(deg)": 45.686462470934195,
        "Longitude(deg)": 88.330702693503,
        "Mean Anomaly(deg)": 124.46719832738926,
        "RAAN(deg)": 44.99327921376411,
        "Satellite Name": "Test1 205",
        "Satellite Number": 205,
        "Semi-Major Axis(m)": 6980739.136638005,
        "Time(s)": 160
    },
    {
        "Altitude(m)": 608837.5844013995,
        "Argument of Periapsis(deg)": 0.0017712208052603888,
        "Eccentricity": 0.0,
        "Inclination(deg)": 60.0,
        "Latitude(deg)": 45.24980804523829,
        "Longitude(deg)": 88.91636507767669,
        "Mean Anomaly(deg)": 125.08730447285112,
        "RAAN(deg)": 44.99285916462437,
        "Satellite Name": "Test1 205",
        "Satellite Number": 205,
        "Semi-Major Axis(m)": 6980739.136638005,
        "Time(s)": 170
    },
    {
        "Altitude(m)": 608738.3167823685,
        "Argument of Periapsis(deg)": 0.001875410264393353,
        "Eccentricity": 0.0,
        "Inclination(deg)": 60.0,
        "Latitude(deg)": 44.80972838523735,
        "Longitude(deg)": 89.49246281844782,
        "Mean Anomaly(deg)": 125.70741061831296,
        "RAAN(deg)": 44.99243911548463,
        "Satellite Name": "Test1 205",
        "Satellite Number": 205,
        "Semi-Major Axis(m)": 6980739.136638005,
        "Time(s)": 180
    },
    {
        "Altitude(m)": 608638.6376690795,
        "Argument of Periapsis(deg)": 0.0019795997235263173,
        "Eccentricity": 0.0,
        "Inclination(deg)": 60.0,
        "Latitude(deg)": 44.36632493621623,
        "Longitude(deg)": 90.05921432545478,
        "Mean Anomaly(deg)": 126.32751676377477,
        "RAAN(deg)": 44.99201906634489,
        "Satellite Name": "Test1 205",
        "Satellite Number": 205,
        "Semi-Major Axis(m)": 6980739.136638005,
        "Time(s)": 190
    }
]